{"fetched_at":"2026-07-12T07:15:21.624Z","source":"https://celestrak.org/NORAD/elements/gp.php?GROUP=planet&FORMAT=JSON","constellation":"superdove","records":[{"OBJECT_NAME":"FLOCK 4BE-17","OBJECT_ID":"2024-149AA","EPOCH":"2026-07-11T17:09:36.259200","CLASSIFICATION_TYPE":"U","MEAN_MOTION":15.40497548,"ECCENTRICITY":0.00041455,"INCLINATION":97.3773,"RA_OF_ASC_NODE":276.2883,"ARG_OF_PERICENTER":155.3826,"MEAN_ANOMALY":204.7619,"EPHEMERIS_TYPE":0,"NORAD_CAT_ID":60492,"ELEMENT_SET_NO":999,"REV_AT_EPOCH":10603,"BSTAR":0.00023253259,"MEAN_MOTION_DOT":0.00009349,"MEAN_MOTION_DDOT":0},{"OBJECT_NAME":"FLOCK 4BE-22","OBJECT_ID":"2024-149AC","EPOCH":"2026-07-11T19:17:58.024320","CLASSIFICATION_TYPE":"U","MEAN_MOTION":15.41913954,"ECCENTRICITY":0.00044783,"INCLINATION":97.3734,"RA_OF_ASC_NODE":276.6096,"ARG_OF_PERICENTER":163.9303,"MEAN_ANOMALY":196.2087,"EPHEMERIS_TYPE":0,"NORAD_CAT_ID":60494,"ELEMENT_SET_NO":999,"REV_AT_EPOCH":10609,"BSTAR":0.00023075198,"MEAN_MOTION_DOT":0.00009725,"MEAN_MOTION_DDOT":0},{"OBJECT_NAME":"FLOCK 4BE-34","OBJECT_ID":"2024-149AD","EPOCH":"2026-07-11T18:09:41.765760","CLASSIFICATION_TYPE":"U","MEAN_MOTION":15.4187855,"ECCENTRICITY":0.0004513,"INCLINATION":97.378,"RA_OF_ASC_NODE":277.3986,"ARG_OF_PERICENTER":170.4162,"MEAN_ANOMALY":189.7172,"EPHEMERIS_TYPE":0,"NORAD_CAT_ID":60495,"ELEMENT_SET_NO":999,"REV_AT_EPOCH":10611,"BSTAR":0.00021967792,"MEAN_MOTION_DOT":0.00009242,"MEAN_MOTION_DDOT":0},{"OBJECT_NAME":"FLOCK 4BE-32","OBJECT_ID":"2024-149AF","EPOCH":"2026-07-11T18:33:34.183584","CLASSIFICATION_TYPE":"U","MEAN_MOTION":15.43005273,"ECCENTRICITY":0.00045975,"INCLINATION":97.3718,"RA_OF_ASC_NODE":276.9792,"ARG_OF_PERICENTER":167.9865,"MEAN_ANOMALY":192.1493,"EPHEMERIS_TYPE":0,"NORAD_CAT_ID":60497,"ELEMENT_SET_NO":999,"REV_AT_EPOCH":10612,"BSTAR":0.00026599874,"MEAN_MOTION_DOT":0.00011644,"MEAN_MOTION_DDOT":0},{"OBJECT_NAME":"FLOCK 4BE-11","OBJECT_ID":"2024-149AK","EPOCH":"2026-07-10T04:47:11.653152","CLASSIFICATION_TYPE":"U","MEAN_MOTION":15.43759592,"ECCENTRICITY":0.00045665,"INCLINATION":97.3696,"RA_OF_ASC_NODE":275.6385,"ARG_OF_PERICENTER":172.587,"MEAN_ANOMALY":187.5446,"EPHEMERIS_TYPE":0,"NORAD_CAT_ID":60501,"ELEMENT_SET_NO":999,"REV_AT_EPOCH":10590,"BSTAR":0.00031749865,"MEAN_MOTION_DOT":0.00014279,"MEAN_MOTION_DDOT":0},{"OBJECT_NAME":"FLOCK 4BE-24","OBJECT_ID":"2024-149AP","EPOCH":"2026-07-09T12:51:25.814016","CLASSIFICATION_TYPE":"U","MEAN_MOTION":15.43944372,"ECCENTRICITY":0.00044967,"INCLINATION":97.371,"RA_OF_ASC_NODE":275.232,"ARG_OF_PERICENTER":186.8328,"MEAN_ANOMALY":173.286,"EPHEMERIS_TYPE":0,"NORAD_CAT_ID":60505,"ELEMENT_SET_NO":999,"REV_AT_EPOCH":10581,"BSTAR":0.00034635346,"MEAN_MOTION_DOT":0.00015684,"MEAN_MOTION_DDOT":0},{"OBJECT_NAME":"FLOCK 4BE-29","OBJECT_ID":"2024-149AT","EPOCH":"2026-07-11T19:09:00.315648","CLASSIFICATION_TYPE":"U","MEAN_MOTION":15.45278458,"ECCENTRICITY":0.00030463,"INCLINATION":97.3808,"RA_OF_ASC_NODE":279.0564,"ARG_OF_PERICENTER":182.4298,"MEAN_ANOMALY":177.6937,"EPHEMERIS_TYPE":0,"NORAD_CAT_ID":60509,"ELEMENT_SET_NO":999,"REV_AT_EPOCH":10621,"BSTAR":0.00057137243,"MEAN_MOTION_DOT":0.00027166,"MEAN_MOTION_DDOT":0},{"OBJECT_NAME":"FLOCK 4BE-2","OBJECT_ID":"2024-149AV","EPOCH":"2026-07-11T18:49:13.371456","CLASSIFICATION_TYPE":"U","MEAN_MOTION":15.55583523,"ECCENTRICITY":0.00051477,"INCLINATION":97.3835,"RA_OF_ASC_NODE":280.8306,"ARG_OF_PERICENTER":183.5442,"MEAN_ANOMALY":176.5777,"EPHEMERIS_TYPE":0,"NORAD_CAT_ID":60511,"ELEMENT_SET_NO":999,"REV_AT_EPOCH":10632,"BSTAR":0.00061742302,"MEAN_MOTION_DOT":0.00042365,"MEAN_MOTION_DDOT":0},{"OBJECT_NAME":"FLOCK 4BE-13","OBJECT_ID":"2024-149AW","EPOCH":"2026-07-11T19:29:03.800256","CLASSIFICATION_TYPE":"U","MEAN_MOTION":15.42552459,"ECCENTRICITY":0.00048675,"INCLINATION":97.3718,"RA_OF_ASC_NODE":277.4895,"ARG_OF_PERICENTER":165.8986,"MEAN_ANOMALY":194.2398,"EPHEMERIS_TYPE":0,"NORAD_CAT_ID":60512,"ELEMENT_SET_NO":999,"REV_AT_EPOCH":10616,"BSTAR":0.00020085109,"MEAN_MOTION_DOT":0.00008636,"MEAN_MOTION_DDOT":0},{"OBJECT_NAME":"FLOCK 4BE-27","OBJECT_ID":"2024-149AX","EPOCH":"2026-07-11T18:37:32.433312","CLASSIFICATION_TYPE":"U","MEAN_MOTION":15.34876993,"ECCENTRICITY":0.00036175,"INCLINATION":97.3825,"RA_OF_ASC_NODE":274.6446,"ARG_OF_PERICENTER":193.0374,"MEAN_ANOMALY":167.0776,"EPHEMERIS_TYPE":0,"NORAD_CAT_ID":60513,"ELEMENT_SET_NO":999,"REV_AT_EPOCH":10591,"BSTAR":0.00017690294,"MEAN_MOTION_DOT":0.00005903,"MEAN_MOTION_DDOT":0},{"OBJECT_NAME":"FLOCK 4BE-9","OBJECT_ID":"2024-149AY","EPOCH":"2026-07-11T18:18:37.983168","CLASSIFICATION_TYPE":"U","MEAN_MOTION":15.41525657,"ECCENTRICITY":0.00033174,"INCLINATION":97.3792,"RA_OF_ASC_NODE":277.2837,"ARG_OF_PERICENTER":179.3535,"MEAN_ANOMALY":180.7716,"EPHEMERIS_TYPE":0,"NORAD_CAT_ID":60514,"ELEMENT_SET_NO":999,"REV_AT_EPOCH":10610,"BSTAR":0.0002242433,"MEAN_MOTION_DOT":0.00009324,"MEAN_MOTION_DDOT":0},{"OBJECT_NAME":"FLOCK 4BE-6","OBJECT_ID":"2024-149BA","EPOCH":"2026-07-11T19:28:41.090016","CLASSIFICATION_TYPE":"U","MEAN_MOTION":15.4025302,"ECCENTRICITY":0.00039323,"INCLINATION":97.3792,"RA_OF_ASC_NODE":276.644,"ARG_OF_PERICENTER":183.6952,"MEAN_ANOMALY":176.4265,"EPHEMERIS_TYPE":0,"NORAD_CAT_ID":60516,"ELEMENT_SET_NO":999,"REV_AT_EPOCH":10606,"BSTAR":0.00021158877,"MEAN_MOTION_DOT":0.00008429,"MEAN_MOTION_DDOT":0},{"OBJECT_NAME":"FLOCK 4BE-14","OBJECT_ID":"2024-149BB","EPOCH":"2026-07-11T18:31:29.327808","CLASSIFICATION_TYPE":"U","MEAN_MOTION":15.41779712,"ECCENTRICITY":0.0004965,"INCLINATION":97.3697,"RA_OF_ASC_NODE":276.7638,"ARG_OF_PERICENTER":187.9835,"MEAN_ANOMALY":172.1334,"EPHEMERIS_TYPE":0,"NORAD_CAT_ID":60517,"ELEMENT_SET_NO":999,"REV_AT_EPOCH":10611,"BSTAR":0.00025733624,"MEAN_MOTION_DOT":0.00010809,"MEAN_MOTION_DDOT":0},{"OBJECT_NAME":"FLOCK 4BE-1","OBJECT_ID":"2024-149BC","EPOCH":"2026-07-11T18:17:07.875744","CLASSIFICATION_TYPE":"U","MEAN_MOTION":15.43429215,"ECCENTRICITY":0.00046993,"INCLINATION":97.3781,"RA_OF_ASC_NODE":278.1199,"ARG_OF_PERICENTER":186.236,"MEAN_ANOMALY":173.883,"EPHEMERIS_TYPE":0,"NORAD_CAT_ID":60518,"ELEMENT_SET_NO":999,"REV_AT_EPOCH":10616,"BSTAR":0.0002443562,"MEAN_MOTION_DOT":0.00010843,"MEAN_MOTION_DDOT":0},{"OBJECT_NAME":"FLOCK 4BE-28","OBJECT_ID":"2024-149BD","EPOCH":"2026-07-11T17:43:10.547328","CLASSIFICATION_TYPE":"U","MEAN_MOTION":15.46087448,"ECCENTRICITY":0.00046568,"INCLINATION":97.375,"RA_OF_ASC_NODE":278.8988,"ARG_OF_PERICENTER":185.3336,"MEAN_ANOMALY":174.7865,"EPHEMERIS_TYPE":0,"NORAD_CAT_ID":60519,"ELEMENT_SET_NO":999,"REV_AT_EPOCH":10623,"BSTAR":0.00055740197,"MEAN_MOTION_DOT":0.00027248,"MEAN_MOTION_DDOT":0},{"OBJECT_NAME":"FLOCK 4BE-5","OBJECT_ID":"2024-149CV","EPOCH":"2026-07-11T18:33:48.655584","CLASSIFICATION_TYPE":"U","MEAN_MOTION":15.40972056,"ECCENTRICITY":0.00036872,"INCLINATION":97.3847,"RA_OF_ASC_NODE":277.0205,"ARG_OF_PERICENTER":181.8015,"MEAN_ANOMALY":178.3219,"EPHEMERIS_TYPE":0,"NORAD_CAT_ID":60559,"ELEMENT_SET_NO":999,"REV_AT_EPOCH":10606,"BSTAR":0.00022613181,"MEAN_MOTION_DOT":0.00009232,"MEAN_MOTION_DDOT":0}]}
